OBJECT_NAME,OBJECT_ID,EPOCH,MEAN_MOTION,ECCENTRICITY,INCLINATION,RA_OF_ASC_NODE,ARG_OF_PERICENTER,MEAN_ANOMALY,EPHEMERIS_TYPE,CLASSIFICATION_TYPE,NORAD_CAT_ID,ELEMENT_SET_NO,REV_AT_EPOCH,BSTAR,MEAN_MOTION_DOT,MEAN_MOTION_DDOT
TDRS 13,2017-047A,2026-07-13T09:59:10.747104,1.00271480,.0014716,3.4588,3.3673,111.3375,314.9787,0,U,42915,999,3261,0,-.104E-5,0
QZS-3 (MICHIBIKI-3),2017-048A,2026-07-13T12:21:22.887936,1.00272892,.0002491,0.0681,215.9981,270.3725,117.3977,0,U,42917,999,3252,0,-.352E-5,0
AMAZONAS 5,2017-053A,2026-07-13T11:27:50.865984,1.00269115,.0001014,0.0332,326.1327,116.6696,319.5048,0,U,42934,999,3230,0,-.286E-5,0
ASIASAT 9,2017-057A,2026-07-12T05:32:14.975232,1.00270973,.0002384,0.0162,36.7195,67.2830,31.2902,0,U,42942,999,3211,0,-.357E-5,0
INTELSAT 37E (IS-37E),2017-059A,2026-07-13T00:48:38.471040,1.00270449,.00024848,0.0156,71.5028,47.5543,166.0149,0,U,42950,999,3232,0,-.143E-5,0
BSAT-4A,2017-059B,2026-07-13T12:16:30.855072,1.00272286,.0003394,0.0357,21.9752,56.7278,146.6395,0,U,42951,999,3206,0,-.354E-5,0
QZS-4 (MICHIBIKI-4),2017-062A,2026-07-12T17:38:03.472224,1.00290649,.07474587,40.0933,343.1604,268.5188,82.4158,0,U,42965,999,3205,0,-.331E-5,0
SES-11 (ECHOSTAR 105),2017-063A,2026-07-13T12:29:38.799744,1.00270987,.0002636,0.0416,294.2515,167.6014,271.9996,0,U,42967,999,3198,0,-.93E-6,0
KOREASAT 5A,2017-067A,2026-07-13T12:17:30.758784,1.00270670,.00007,0.0124,32.1667,87.7834,108.9649,0,U,42984,999,3179,0,-.362E-5,0
ALCOMSAT 1,2017-078A,2026-07-13T11:37:57.398304,1.00268931,.0002174,0.0565,265.9108,203.8357,331.2985,0,U,43039,999,3156,0,-.19E-5,0
SBIRS GEO-3 (USA 282),2018-009A,2026-07-13T12:39:38.666304,1.00271723,.0001705,2.2031,13.3068,99.6224,208.9933,0,U,43162,999,3110,0,.123E-5,0
AL YAH 3,2018-012A,2026-07-13T09:56:48.473088,1.00270806,.000349,1.6171,82.7898,29.3828,308.2120,0,U,43174,999,3110,0,-.161E-5,0
SES-14,2018-012B,2026-07-13T11:31:35.506848,1.00270131,.0000732,0.0130,29.6370,84.2168,302.8927,0,U,43175,999,728,0,-.282E-5,0
GOES 17,2018-022A,2026-07-13T12:13:38.932032,1.00271287,.0000528,1.0022,85.2830,84.7861,215.2345,0,U,43226,999,3068,0,-.187E-5,0
HISPASAT 30W-6,2018-023A,2026-07-13T09:53:56.249376,1.00270797,.0005126,0.0430,48.7181,41.5064,319.5730,0,U,43228,999,3066,0,-.219E-5,0
SUPERBIRD-B3,2018-033A,2026-07-13T12:13:26.710752,1.00270644,.000099,0.0137,25.9642,102.1775,148.6134,0,U,43271,999,3032,0,-.96E-6,0
HYLAS 4,2018-033B,2026-07-13T03:02:19.436640,1.00271265,.00008076,0.0147,320.2826,181.7892,161.0197,0,U,43272,999,3032,0,-.236E-5,0
IRNSS-1I,2018-035A,2026-07-06T20:05:50.528832,1.00279237,.00180874,28.7973,73.8917,180.4002,27.0525,0,U,43286,999,3027,0,.79E-6,0
USA 283,2018-036A,2026-07-09T10:52:04.238976,1.00270107,.0000871,0.0041,71.7274,148.0481,4.7270,0,U,43339,999,2551,0,-.304E-5,0
COSMOS 2526,2018-037A,2026-07-13T05:31:05.626272,1.00269348,.000073,0.0336,86.2884,158.7145,256.9341,0,U,43432,999,3022,0,-.347E-5,0
APSTAR-6C,2018-041A,2026-07-13T10:40:49.533600,1.00269327,.000059,0.0221,1.4288,278.9644,305.1336,0,U,43450,999,3007,0,-.321E-5,0
BANGABANDHUSAT-1,2018-044A,2026-07-13T12:56:38.626080,1.00270888,.0001654,0.0192,93.7142,31.7557,119.2002,0,U,43463,999,2997,0,-.366E-5,0
SES-12,2018-049A,2026-07-13T12:12:16.261920,1.00271997,.0000834,0.0110,6.7233,259.4704,303.2619,0,U,43488,999,2968,0,-.273E-5,0
FENGYUN 2H,2018-050A,2026-07-13T12:07:47.037792,1.00267298,.0002306,3.0955,78.7609,133.1773,340.5473,0,U,43491,999,2970,0,-.133E-5,0
BEIDOU-2 IGSO-7,2018-057A,2026-07-01T21:23:21.693984,1.00246939,.01049468,55.1981,162.9292,237.8611,308.6338,0,U,43539,999,2927,0,-.33E-6,0
TELSTAR 19V,2018-059A,2026-07-13T11:27:13.427136,1.00269502,.0002842,0.0313,150.4839,342.4837,267.1900,0,U,43562,999,2940,0,-.283E-5,0
TELKOM 4 (MERAH PUTIH),2018-064A,2026-07-13T12:16:00.902784,1.00269701,.0000989,0.0197,79.6638,40.7196,103.0021,0,U,43587,999,2914,0,-.348E-5,0
TELSTAR 18V,2018-069A,2026-07-13T12:29:20.367168,1.00269998,.0001664,0.0151,318.0250,158.6111,140.0899,0,U,43611,999,2890,0,-.298E-5,0
AZERSPACE 2 (IS-38),2018-074A,2026-07-13T11:58:02.971200,1.00269797,.0001228,0.0257,44.2154,77.9656,33.8263,0,U,43632,999,2871,0,0,0
HORIZONS-3E,2018-074B,2026-07-13T12:05:38.782176,1.00269676,.0000927,0.0496,224.9171,51.5280,5.3422,0,U,43633,999,2860,0,-.35E-6,0
AEHF-4 (USA 288),2018-079A,2026-07-13T11:26:06.034272,1.00276844,.0058554,1.4393,6.1495,354.0041,35.1374,0,U,43651,999,2856,0,-.279E-5,0
BEIDOU-3 G1,2018-085A,2026-07-13T12:42:44.744256,1.00272569,.0008034,2.9315,96.6658,355.8886,189.4935,0,U,43683,999,2832,0,-.116E-5,0
