TDRS 13                 
1 42915U 17047A   26194.41609661 -.00000104  00000+0  00000+0 0  9999
2 42915   3.4588   3.3673 0014716 111.3375 314.9787  1.00271480 32617
QZS-3 (MICHIBIKI-3)     
1 42917U 17048A   26194.51484824 -.00000352  00000+0  00000+0 0  9990
2 42917   0.0681 215.9981 0002491 270.3725 117.3977  1.00272892 32525
AMAZONAS 5              
1 42934U 17053A   26194.47767206 -.00000286  00000+0  00000+0 0  9994
2 42934   0.0332 326.1327 0001014 116.6696 319.5048  1.00269115 32300
ASIASAT 9               
1 42942U 17057A   26193.23072888 -.00000357  00000+0  00000+0 0  9994
2 42942   0.0162  36.7195 0002384  67.2830  31.2902  1.00270973 32119
INTELSAT 37E (IS-37E)   
1 42950U 17059A   26194.03377860 -.00000143  00000+0  00000+0 0  9995
2 42950   0.0156  71.5028 0002484  47.5543 166.0149  1.00270449 32327
BSAT-4A                 
1 42951U 17059B   26194.51146823 -.00000354  00000+0  00000+0 0  9996
2 42951   0.0357  21.9752 0003394  56.7278 146.6395  1.00272286 32061
QZS-4 (MICHIBIKI-4)     
1 42965U 17062A   26193.73476241 -.00000331  00000+0  00000+0 0  9993
2 42965  40.0933 343.1604 0747458 268.5188  82.4158  1.00290649 32050
SES-11 (ECHOSTAR 105)   
1 42967U 17063A   26194.52058796 -.00000093  00000+0  00000+0 0  9990
2 42967   0.0416 294.2515 0002636 167.6014 271.9996  1.00270987 31989
KOREASAT 5A             
1 42984U 17067A   26194.51216156 -.00000362  00000+0  00000+0 0  9997
2 42984   0.0124  32.1667 0000700  87.7834 108.9649  1.00270670 31795
ALCOMSAT 1              
1 43039U 17078A   26194.48469211 -.00000190  00000+0  00000+0 0  9998
2 43039   0.0565 265.9108 0002174 203.8357 331.2985  1.00268931 31566
SBIRS GEO-3 (USA 282)   
1 43162U 18009A   26194.52753086  .00000123  00000+0  00000+0 0  9996
2 43162   2.2031  13.3068 0001705  99.6224 208.9933  1.00271723 31104
AL YAH 3                
1 43174U 18012A   26194.41444992 -.00000161  00000+0  00000+0 0  9997
2 43174   1.6171  82.7898 0003490  29.3828 308.2120  1.00270806 31102
SES-14                  
1 43175U 18012B   26194.48027207 -.00000282  00000+0  00000+0 0  9995
2 43175   0.0130  29.6370 0000732  84.2168 302.8927  1.00270131  7287
GOES 17                 
1 43226U 18022A   26194.50947838 -.00000187  00000+0  00000+0 0  9991
2 43226   1.0022  85.2830 0000528  84.7861 215.2345  1.00271287 30686
HISPASAT 30W-6          
1 43228U 18023A   26194.41245659 -.00000219  00000+0  00000+0 0  9992
2 43228   0.0430  48.7181 0005126  41.5064 319.5730  1.00270797 30667
SUPERBIRD-B3            
1 43271U 18033A   26194.50933693 -.00000096  00000+0  00000+0 0  9996
2 43271   0.0137  25.9642 0000990 102.1775 148.6134  1.00270644 30328
HYLAS 4                 
1 43272U 18033B   26194.12661385 -.00000236  00000+0  00000+0 0  9997
2 43272   0.0147 320.2826 0000807 181.7892 161.0197  1.00271265 30323
IRNSS-1I                
1 43286U 18035A   26187.83739038  .00000079  00000+0  00000+0 0  9999
2 43286  28.7973  73.8917 0018087 180.4002  27.0525  1.00279237 30279
USA 283                 
1 43339U 18036A   26190.45282684 -.00000304  00000+0  00000+0 0  9993
2 43339   0.0041  71.7274 0000871 148.0481   4.7270  1.00270107 25510
COSMOS 2526             
1 43432U 18037A   26194.22992623 -.00000347  00000+0  00000+0 0  9995
2 43432   0.0336  86.2884 0000730 158.7145 256.9341  1.00269348 30227
APSTAR-6C               
1 43450U 18041A   26194.44501775 -.00000321  00000+0  00000+0 0  9990
2 43450   0.0221   1.4288 0000590 278.9644 305.1336  1.00269327 30071
BANGABANDHUSAT-1        
1 43463U 18044A   26194.53933595 -.00000366  00000+0  00000+0 0  9995
2 43463   0.0192  93.7142 0001654  31.7557 119.2002  1.00270888 29970
SES-12                  
1 43488U 18049A   26194.50852155 -.00000273  00000+0  00000+0 0  9993
2 43488   0.0110   6.7233 0000834 259.4704 303.2619  1.00271997 29683
FENGYUN 2H              
1 43491U 18050A   26194.50540553 -.00000133  00000+0  00000+0 0  9990
2 43491   3.0955  78.7609 0002306 133.1773 340.5473  1.00267298 29707
BEIDOU-2 IGSO-7         
1 43539U 18057A   26182.89122331 -.00000033  00000+0  00000+0 0  9998
2 43539  55.1981 162.9292 0104946 237.8611 308.6338  1.00246939 29273
TELSTAR 19V             
1 43562U 18059A   26194.47723874 -.00000283  00000+0  00000+0 0  9999
2 43562   0.0313 150.4839 0002842 342.4837 267.1900  1.00269502 29401
TELKOM 4 (MERAH PUTIH)  
1 43587U 18064A   26194.51112156 -.00000348  00000+0  00000+0 0  9994
2 43587   0.0197  79.6638 0000989  40.7196 103.0021  1.00269701 29147
TELSTAR 18V             
1 43611U 18069A   26194.52037462 -.00000298  00000+0  00000+0 0  9998
2 43611   0.0151 318.0250 0001664 158.6111 140.0899  1.00269998 28907
AZERSPACE 2 (IS-38)     
1 43632U 18074A   26194.49864550  .00000000  00000+0  00000+0 0  9999
2 43632   0.0257  44.2154 0001228  77.9656  33.8263  1.00269797 28711
HORIZONS-3E             
1 43633U 18074B   26194.50392109 -.00000035  00000+0  00000+0 0  9997
2 43633   0.0496 224.9171 0000927  51.5280   5.3422  1.00269676 28604
AEHF-4 (USA 288)        
1 43651U 18079A   26194.47645873 -.00000279  00000+0  00000+0 0  9997
2 43651   1.4393   6.1495 0058554 354.0041  35.1374  1.00276844 28566
BEIDOU-3 G1             
1 43683U 18085A   26194.52968454 -.00000116  00000+0  00000+0 0  9998
2 43683   2.9315  96.6658 0008034 355.8886 189.4935  1.00272569 28320
